CZ-2C R/B               
1 54039U 22132E   26007.72170531  .00033361  00000+0  46392-3 0  9994
2 54039  97.2948   9.4504 0018074 323.4836  36.5185 15.56723785180874
GSLV R/B                
1 54149U 22138AN  26007.73863801  .00002371  00000+0  20634-3 0  9990
2 54149  87.3826 186.7654 0022460  19.2220 340.9853 14.96297107174815
XRISM                   
1 57800U 23137A   26007.53986544  .00005919  00000+0  34292-3 0  9991
2 57800  31.0032 318.9334 0007770 147.9599 212.1513 15.10694094128530
ACS3                    
1 59588U 24077B   26007.81186782  .00014759  00000+0  12423-1 0  9999
2 59588  97.2482 322.5921 0065664 272.7475  86.6172 13.86904265 85753
SZ-21 MODULE            
1 66515U 25246C   26007.86050997  .00025291  00000+0  26192-3 0  9992
2 66515  41.4742 216.5245 0001495  84.1343 275.9668 15.64106684  8534
