CCSDS_OMM_VERS = 2.0
CREATION_DATE  = 
ORIGINATOR     = 

OBJECT_NAME    = CZ-2C R/B
OBJECT_ID      = 2022-132E
CENTER_NAME    = EARTH
REF_FRAME      = TEME
TIME_SYSTEM    = UTC
MEAN_ELEMENT_THEORY = SGP/SGP4

EPOCH          = 2026-01-07T17:19:15.338784
MEAN_MOTION    = 15.56723785
ECCENTRICITY   = .0018074
INCLINATION    = 97.2948
RA_OF_ASC_NODE = 9.4504
ARG_OF_PERICENTER = 323.4836
MEAN_ANOMALY   = 36.5185

EPHEMERIS_TYPE = 0
CLASSIFICATION_TYPE = U
NORAD_CAT_ID   = 54039
ELEMENT_SET_NO = 999
REV_AT_EPOCH   = 18087
BSTAR          = .46392E-3
MEAN_MOTION_DOT = .33361E-3
MEAN_MOTION_DDOT = 0

CCSDS_OMM_VERS = 2.0
CREATION_DATE  = 
ORIGINATOR     = 

OBJECT_NAME    = GSLV R/B
OBJECT_ID      = 2022-138AN
CENTER_NAME    = EARTH
REF_FRAME      = TEME
TIME_SYSTEM    = UTC
MEAN_ELEMENT_THEORY = SGP/SGP4

EPOCH          = 2026-01-07T17:43:38.324064
MEAN_MOTION    = 14.96297107
ECCENTRICITY   = .002246
INCLINATION    = 87.3826
RA_OF_ASC_NODE = 186.7654
ARG_OF_PERICENTER = 19.2220
MEAN_ANOMALY   = 340.9853

EPHEMERIS_TYPE = 0
CLASSIFICATION_TYPE = U
NORAD_CAT_ID   = 54149
ELEMENT_SET_NO = 999
REV_AT_EPOCH   = 17481
BSTAR          = .20634E-3
MEAN_MOTION_DOT = .2371E-4
MEAN_MOTION_DDOT = 0

CCSDS_OMM_VERS = 2.0
CREATION_DATE  = 
ORIGINATOR     = 

OBJECT_NAME    = XRISM
OBJECT_ID      = 2023-137A
CENTER_NAME    = EARTH
REF_FRAME      = TEME
TIME_SYSTEM    = UTC
MEAN_ELEMENT_THEORY = SGP/SGP4

EPOCH          = 2026-01-07T12:57:24.374016
MEAN_MOTION    = 15.10694094
ECCENTRICITY   = .000777
INCLINATION    = 31.0032
RA_OF_ASC_NODE = 318.9334
ARG_OF_PERICENTER = 147.9599
MEAN_ANOMALY   = 212.1513

EPHEMERIS_TYPE = 0
CLASSIFICATION_TYPE = U
NORAD_CAT_ID   = 57800
ELEMENT_SET_NO = 999
REV_AT_EPOCH   = 12853
BSTAR          = .34292E-3
MEAN_MOTION_DOT = .5919E-4
MEAN_MOTION_DDOT = 0

CCSDS_OMM_VERS = 2.0
CREATION_DATE  = 
ORIGINATOR     = 

OBJECT_NAME    = ACS3
OBJECT_ID      = 2024-077B
CENTER_NAME    = EARTH
REF_FRAME      = TEME
TIME_SYSTEM    = UTC
MEAN_ELEMENT_THEORY = SGP/SGP4

EPOCH          = 2026-01-07T19:29:05.379648
MEAN_MOTION    = 13.86904265
ECCENTRICITY   = .0065664
INCLINATION    = 97.2482
RA_OF_ASC_NODE = 322.5921
ARG_OF_PERICENTER = 272.7475
MEAN_ANOMALY   = 86.6172

EPHEMERIS_TYPE = 0
CLASSIFICATION_TYPE = U
NORAD_CAT_ID   = 59588
ELEMENT_SET_NO = 999
REV_AT_EPOCH   = 8575
BSTAR          = .12423E-1
MEAN_MOTION_DOT = .14759E-3
MEAN_MOTION_DDOT = 0

CCSDS_OMM_VERS = 2.0
CREATION_DATE  = 
ORIGINATOR     = 

OBJECT_NAME    = SZ-21 MODULE
OBJECT_ID      = 2025-246C
CENTER_NAME    = EARTH
REF_FRAME      = TEME
TIME_SYSTEM    = UTC
MEAN_ELEMENT_THEORY = SGP/SGP4

EPOCH          = 2026-01-07T20:39:08.061408
MEAN_MOTION    = 15.64106684
ECCENTRICITY   = .0001495
INCLINATION    = 41.4742
RA_OF_ASC_NODE = 216.5245
ARG_OF_PERICENTER = 84.1343
MEAN_ANOMALY   = 275.9668

EPHEMERIS_TYPE = 0
CLASSIFICATION_TYPE = U
NORAD_CAT_ID   = 66515
ELEMENT_SET_NO = 999
REV_AT_EPOCH   = 853
BSTAR          = .26192E-3
MEAN_MOTION_DOT = .25291E-3
MEAN_MOTION_DDOT = 0

